start=new Date('2023-04-22T00:00:00.000Z').valueOf();
sats=[{"RA_OF_ASC_NODE":"148.0721","MEAN_ANOMALY":"265.0735","REF_FRAME":"TEME","SITE":"AFETR","NORAD_CAT_ID":"48327","EPOCH":"2023-04-21T20:00:10.242432","ELEMENT_SET_NO":"999","BSTAR":"0.00030815000000","MEAN_MOTION":"15.06400010","APOAPSIS":"548.211","FILE":"3891716","MEAN_MOTION_DDOT":"0.0000000000000","TIME_SYSTEM":"UTC","CLASSIFICATION_TYPE":"U","GP_ID":"230526473","TLE_LINE1":"1 48327U 21036BD  23111.83345188  .00004311  00000-0  30815-3 0  9993","COUNTRY_CODE":"US","SEMIMAJOR_AXIS":"6925.349","ECCENTRICITY":"0.00014400","INCLINATION":"53.0518","ARG_OF_PERICENTER":"95.0418","LAUNCH_DATE":"2021-04-29","CENTER_NAME":"EARTH","MEAN_MOTION_DOT":"0.00004311","PERIOD":"95.592","RCS_SIZE":"LARGE","OBJECT_TYPE":"PAYLOAD","OBJECT_NAME":"STARLINK-2502","MEAN_ELEMENT_THEORY":"SGP4","DECAY_DATE":null,"EPHEMERIS_TYPE":"0","REV_AT_EPOCH":"10934","OBJECT_ID":"2021-036BD","TLE_LINE2":"2 48327  53.0518 148.0721 0001440  95.0418 265.0735 15.06400010109349","PERIAPSIS":"546.216"},{"TIME_SYSTEM":"UTC","MEAN_MOTION_DDOT":"0.0000000000000","APOAPSIS":"547.951","FILE":"3891591","MEAN_MOTION":"15.06412573","ELEMENT_SET_NO":"999","BSTAR":"0.00063827000000","NORAD_CAT_ID":"48328","EPOCH":"2023-04-21T19:53:29.817312","REF_FRAME":"TEME","SITE":"AFETR","MEAN_ANOMALY":"287.4190","RA_OF_ASC_NODE":"148.0858","PERIAPSIS":"546.399","TLE_LINE2":"2 48328  53.0516 148.0858 0001121  72.6922 287.4190 15.06412573109931","OBJECT_ID":"2021-036BE","REV_AT_EPOCH":"10993","EPHEMERIS_TYPE":"0","MEAN_ELEMENT_THEORY":"SGP4","DECAY_DATE":null,"OBJECT_NAME":"STARLINK-2504","OBJECT_TYPE":"PAYLOAD","RCS_SIZE":"LARGE","MEAN_MOTION_DOT":"0.00009241","PERIOD":"95.591","LAUNCH_DATE":"2021-04-29","CENTER_NAME":"EARTH","ECCENTRICITY":"0.00011210","INCLINATION":"53.0516","ARG_OF_PERICENTER":"72.6922","SEMIMAJOR_AXIS":"6925.310","TLE_LINE1":"1 48328U 21036BE  23111.82881733  .00009241  00000-0  63827-3 0  9990","GP_ID":"230502998","COUNTRY_CODE":"US","CLASSIFICATION_TYPE":"U"},{"MEAN_ELEMENT_THEORY":"SGP4","DECAY_DATE":null,"OBJECT_TYPE":"PAYLOAD","OBJECT_NAME":"STARLINK-2510","REV_AT_EPOCH":"10934","EPHEMERIS_TYPE":"0","OBJECT_ID":"2021-036BF","PERIAPSIS":"546.292","TLE_LINE2":"2 48329  53.0523 148.1046 0001373  88.3874 271.7272 15.06390428109345","GP_ID":"230527475","TLE_LINE1":"1 48329U 21036BF  23111.82609922  .00006626  00000-0  46342-3 0  9996","COUNTRY_CODE":"US","SEMIMAJOR_AXIS":"6925.378","CLASSIFICATION_TYPE":"U","ECCENTRICITY":"0.00013730","INCLINATION":"53.0523","ARG_OF_PERICENTER":"88.3874","MEAN_MOTION_DOT":"0.00006626","PERIOD":"95.593","LAUNCH_DATE":"2021-04-29","CENTER_NAME":"EARTH","RCS_SIZE":"LARGE","MEAN_MOTION":"15.06390428","MEAN_MOTION_DDOT":"0.0000000000000","APOAPSIS":"548.194","FILE":"3891716","TIME_SYSTEM":"UTC","RA_OF_ASC_NODE":"148.1046","MEAN_ANOMALY":"271.7272","REF_FRAME":"TEME","SITE":"AFETR","ELEMENT_SET_NO":"999","BSTAR":"0.00046342000000","NORAD_CAT_ID":"48329","EPOCH":"2023-04-21T19:49:34.972608"},{"CENTER_NAME":"EARTH","LAUNCH_DATE":"2021-04-29","MEAN_MOTION_DOT":"0.00009814","PERIOD":"95.592","RCS_SIZE":"LARGE","CLASSIFICATION_TYPE":"U","TLE_LINE1":"1 48330U 21036BG  23111.82239461  .00009814  00000-0  67664-3 0  9997","COUNTRY_CODE":"US","GP_ID":"230526228","SEMIMAJOR_AXIS":"6925.321","ARG_OF_PERICENTER":"86.3544","ECCENTRICITY":"0.00014970","INCLINATION":"53.0511","OBJECT_ID":"2021-036BG","TLE_LINE2":"2 48330  53.0511 148.1240 0001497  86.3544 273.7617 15.06408893109340","PERIAPSIS":"546.150","OBJECT_NAME":"STARLINK-2501","OBJECT_TYPE":"PAYLOAD","MEAN_ELEMENT_THEORY":"SGP4","DECAY_DATE":null,"EPHEMERIS_TYPE":"0","REV_AT_EPOCH":"10934","SITE":"AFETR","REF_FRAME":"TEME","EPOCH":"2023-04-21T19:44:14.894304","NORAD_CAT_ID":"48330","BSTAR":"0.00067664000000","ELEMENT_SET_NO":"999","RA_OF_ASC_NODE":"148.1240","MEAN_ANOMALY":"273.7617","FILE":"3891716","APOAPSIS":"548.223","MEAN_MOTION_DDOT":"0.0000000000000","TIME_SYSTEM":"UTC","MEAN_MOTION":"15.06408893"},{"BSTAR":"0.00085906000000","ELEMENT_SET_NO":"999","EPOCH":"2023-04-21T19:38:56.691744","NORAD_CAT_ID":"48331","SITE":"AFETR","REF_FRAME":"TEME","MEAN_ANOMALY":"285.3896","RA_OF_ASC_NODE":"148.1416","TIME_SYSTEM":"UTC","MEAN_MOTION_DDOT":"0.0000000000000","FILE":"3891602","APOAPSIS":"548.217","MEAN_MOTION":"15.06404907","RCS_SIZE":"LARGE","MEAN_MOTION_DOT":"0.00012539","PERIOD":"95.592","LAUNCH_DATE":"2021-04-29","CENTER_NAME":"EARTH","INCLINATION":"53.0499","ARG_OF_PERICENTER":"74.7256","ECCENTRICITY":"0.00014710","COUNTRY_CODE":"US","TLE_LINE1":"1 48331U 21036BH  23111.81871171  .00012539  00000-0  85906-3 0  9994","GP_ID":"230502712","SEMIMAJOR_AXIS":"6925.334","CLASSIFICATION_TYPE":"U","PERIAPSIS":"546.180","TLE_LINE2":"2 48331  53.0499 148.1416 0001471  74.7256 285.3896 15.06404907109939","OBJECT_ID":"2021-036BH","REV_AT_EPOCH":"10993","EPHEMERIS_TYPE":"0","DECAY_DATE":null,"MEAN_ELEMENT_THEORY":"SGP4","OBJECT_NAME":"STARLINK-2514","OBJECT_TYPE":"PAYLOAD"},{"RA_OF_ASC_NODE":"149.6339","MEAN_ANOMALY":"261.1842","REF_FRAME":"TEME","SITE":"AFETR","NORAD_CAT_ID":"48332","EPOCH":"2023-04-21T11:39:52.794144","ELEMENT_SET_NO":"999","BSTAR":"0.00089770000000","MEAN_MOTION":"15.06414014","APOAPSIS":"548.238","FILE":"3891383","MEAN_MOTION_DDOT":"0.0000000000000","TIME_SYSTEM":"UTC","CLASSIFICATION_TYPE":"U","TLE_LINE1":"1 48332U 21036BJ  23111.48602771  .00013120  00000-0  89770-3 0  9996","GP_ID":"230471409","COUNTRY_CODE":"US","SEMIMAJOR_AXIS":"6925.306","ARG_OF_PERICENTER":"98.9322","ECCENTRICITY":"0.00015410","INCLINATION":"53.0529","LAUNCH_DATE":"2021-04-29","CENTER_NAME":"EARTH","MEAN_MOTION_DOT":"0.00013120","PERIOD":"95.591","RCS_SIZE":"LARGE","OBJECT_NAME":"STARLINK-2511","OBJECT_TYPE":"PAYLOAD","MEAN_ELEMENT_THEORY":"SGP4","DECAY_DATE":null,"EPHEMERIS_TYPE":"0","REV_AT_EPOCH":"10988","OBJECT_ID":"2021-036BJ","TLE_LINE2":"2 48332  53.0529 149.6339 0001541  98.9322 261.1842 15.06414014109881","PERIAPSIS":"546.103"},{"ECCENTRICITY":"0.00011600","INCLINATION":"53.0502","ARG_OF_PERICENTER":"90.6556","CLASSIFICATION_TYPE":"U","GP_ID":"230527976","TLE_LINE1":"1 48333U 21036BK  23111.61229252  .00015792  00000-0  10758-2 0  9997","COUNTRY_CODE":"US","SEMIMAJOR_AXIS":"6925.257","RCS_SIZE":"LARGE","LAUNCH_DATE":"2021-04-29","CENTER_NAME":"EARTH","PERIOD":"95.590","MEAN_MOTION_DOT":"0.00015792","EPHEMERIS_TYPE":"0","REV_AT_EPOCH":"10931","OBJECT_NAME":"STARLINK-2518","OBJECT_TYPE":"PAYLOAD","DECAY_DATE":null,"MEAN_ELEMENT_THEORY":"SGP4","TLE_LINE2":"2 48333  53.0502 149.0657 0001160  90.6556 269.4566 15.06429755109315","PERIAPSIS":"546.319","OBJECT_ID":"2021-036BK","MEAN_ANOMALY":"269.4566","RA_OF_ASC_NODE":"149.0657","NORAD_CAT_ID":"48333","EPOCH":"2023-04-21T14:41:42.073728","ELEMENT_SET_NO":"999","BSTAR":"0.00107580000000","REF_FRAME":"TEME","SITE":"AFETR","MEAN_MOTION":"15.06429755","TIME_SYSTEM":"UTC","APOAPSIS":"547.926","FILE":"3891716","MEAN_MOTION_DDOT":"0.0000000000000"},{"MEAN_ELEMENT_THEORY":"SGP4","DECAY_DATE":null,"OBJECT_TYPE":"PAYLOAD","OBJECT_NAME":"STARLINK-2470","REV_AT_EPOCH":"10993","EPHEMERIS_TYPE":"0","OBJECT_ID":"2021-036BL","PERIAPSIS":"546.577","TLE_LINE2":"2 48334  53.0524 148.1907 0000881 106.1156 253.9930 15.06408545109931","SEMIMAJOR_AXIS":"6925.322","TLE_LINE1":"1 48334U 21036BL  23111.80765494  .00004203  00000-0  30078-3 0  9995","GP_ID":"230502779","COUNTRY_CODE":"US","CLASSIFICATION_TYPE":"U","ARG_OF_PERICENTER":"106.1156","INCLINATION":"53.0524","ECCENTRICITY":"0.00008810","PERIOD":"95.592","MEAN_MOTION_DOT":"0.00004203","LAUNCH_DATE":"2021-04-29","CENTER_NAME":"EARTH","RCS_SIZE":"LARGE","MEAN_MOTION":"15.06408545","MEAN_MOTION_DDOT":"0.0000000000000","APOAPSIS":"547.797","FILE":"3891603","TIME_SYSTEM":"UTC","RA_OF_ASC_NODE":"148.1907","MEAN_ANOMALY":"253.9930","REF_FRAME":"TEME","SITE":"AFETR","ELEMENT_SET_NO":"999","BSTAR":"0.00030078000000","NORAD_CAT_ID":"48334","EPOCH":"2023-04-21T19:23:01.386816"},{"RA_OF_ASC_NODE":"148.2007","MEAN_ANOMALY":"268.9155","SITE":"AFETR","REF_FRAME":"TEME","EPOCH":"2023-04-21T19:17:42.279648","NORAD_CAT_ID":"48335","BSTAR":"0.00032345000000","ELEMENT_SET_NO":"999","MEAN_MOTION":"15.06404185","FILE":"3891716","APOAPSIS":"547.974","MEAN_MOTION_DDOT":"0.0000000000000","TIME_SYSTEM":"UTC","CLASSIFICATION_TYPE":"U","GP_ID":"230526474","TLE_LINE1":"1 48335U 21036BM  23111.80396157  .00004540  00000-0  32345-3 0  9995","COUNTRY_CODE":"US","SEMIMAJOR_AXIS":"6925.336","INCLINATION":"53.0524","ECCENTRICITY":"0.00011160","ARG_OF_PERICENTER":"91.1962","LAUNCH_DATE":"2021-04-29","CENTER_NAME":"EARTH","PERIOD":"95.592","MEAN_MOTION_DOT":"0.00004540","RCS_SIZE":"LARGE","OBJECT_NAME":"STARLINK-2441","OBJECT_TYPE":"PAYLOAD","DECAY_DATE":null,"MEAN_ELEMENT_THEORY":"SGP4","EPHEMERIS_TYPE":"0","REV_AT_EPOCH":"10934","OBJECT_ID":"2021-036BM","TLE_LINE2":"2 48335  53.0524 148.2007 0001116  91.1962 268.9155 15.06404185109340","PERIAPSIS":"546.428"},{"NORAD_CAT_ID":"48353","EPOCH":"2023-04-21T19:25:39.944640","ELEMENT_SET_NO":"999","BSTAR":"0.00024953000000","REF_FRAME":"TEME","SITE":"AFETR","MEAN_ANOMALY":"284.5680","RA_OF_ASC_NODE":"48.1814","TIME_SYSTEM":"UTC","APOAPSIS":"548.821","FILE":"3891716","MEAN_MOTION_DDOT":"0.0000000000000","MEAN_MOTION":"15.06386151","RCS_SIZE":"LARGE","LAUNCH_DATE":"2021-05-04","CENTER_NAME":"EARTH","MEAN_MOTION_DOT":"0.00003436","PERIOD":"95.593","ECCENTRICITY":"0.00022600","ARG_OF_PERICENTER":"75.5560","INCLINATION":"53.0554","CLASSIFICATION_TYPE":"U","TLE_LINE1":"1 48353U 21038A   23111.80949010  .00003436  00000-0  24953-3 0  9998","GP_ID":"230527726","SEMIMAJOR_AXIS":"6925.391","COUNTRY_CODE":"US","TLE_LINE2":"2 48353  53.0554  48.1814 0002260  75.5560 284.5680 15.06386151108335","PERIAPSIS":"545.691","OBJECT_ID":"2021-038A","EPHEMERIS_TYPE":"0","REV_AT_EPOCH":"10833","OBJECT_TYPE":"PAYLOAD","OBJECT_NAME":"STARLINK-2613","MEAN_ELEMENT_THEORY":"SGP4","DECAY_DATE":null}];
